{
  "AF": {
    "name": "Afghanistan",
    "flag": "ğŸ‡¦ğŸ‡«",
    "code": "+93",
    "currency": "AFN",
    "capital": "Kabul",
    "languages": ["ps", "uz", "tk"],
    "nameNative": "Ø§ÙØºØ§Ù†Ø³ØªØ§Ù†"
  },
  "AX": {
    "name": "Ã…land Islands",
    "flag": "ğŸ‡¦ğŸ‡½",
    "code": "+358",
    "currency": "EUR",
    "capital": "Mariehamn",
    "languages": ["sv"],
    "nameNative": "Ã…land"
  },
  "AL": {
    "name": "Albania",
    "flag": "ğŸ‡¦ğŸ‡±",
    "code": "+355",
    "currency": "ALL",
    "capital": "Tirana",
    "languages": ["sq"],
    "nameNative": "ShqipÃ«ria"
  },
  "DZ": {
    "name": "Algeria",
    "flag": "ğŸ‡©ğŸ‡¿",
    "code": "+213",
    "currency": "DZD",
    "capital": "Algiers",
    "languages": ["ar"],
    "nameNative": "Ø§Ù„Ø¬Ø²Ø§Ø¦Ø±"
  },
  "AS": {
    "name": "American Samoa",
    "flag": "ğŸ‡¦ğŸ‡¸",
    "code": "+1684",
    "currency": "USD",
    "capital": "Pago Pago",
    "languages": ["en", "sm"],
    "nameNative": "American Samoa"
  },
  "AD": {
    "name": "Andorra",
    "flag": "ğŸ‡¦ğŸ‡©",
    "code": "+376",
    "currency": "EUR",
    "capital": "Andorra la Vella",
    "languages": ["ca"],
    "nameNative": "Andorra"
  },
  "AO": {
    "name": "Angola",
    "flag": "ğŸ‡¦ğŸ‡´",
    "code": "+244",
    "currency": "AOA",
    "capital": "Luanda",
    "languages": ["pt"],
    "nameNative": "Angola"
  },
  "AI": {
    "name": "Anguilla",
    "flag": "ğŸ‡¦ğŸ‡®",
    "code": "+1264",
    "currency": "XCD",
    "capital": "The Valley",
    "languages": ["en"],
    "nameNative": "Anguilla"
  },
  "AQ": {
    "name": "Antarctica",
    "flag": "ğŸ‡¦ğŸ‡¶",
    "code": "+672",
    "capital": "",
    "languages": [],
    "nameNative": "Antarctica"
  },
  "AG": {
    "name": "Antigua and Barbuda",
    "flag": "ğŸ‡¦ğŸ‡¬",
    "code": "+1268",
    "currency": "XCD",
    "capital": "Saint John's",
    "languages": ["en"],
    "nameNative": "Antigua and Barbuda"
  },
  "AR": {
    "name": "Argentina",
    "flag": "ğŸ‡¦ğŸ‡·",
    "code": "+54",
    "currency": "ARS",
    "capital": "Buenos Aires",
    "languages": ["es", "gn"],
    "nameNative": "Argentina"
  },
  "AM": {
    "name": "Armenia",
    "flag": "ğŸ‡¦ğŸ‡²",
    "code": "+374",
    "currency": "AMD",
    "capital": "Yerevan",
    "languages": ["hy", "ru"],
    "nameNative": "Õ€Õ¡ÕµÕ¡Õ½Õ¿Õ¡Õ¶"
  },
  "AW": {
    "name": "Aruba",
    "flag": "ğŸ‡¦ğŸ‡¼",
    "code": "+297",
    "currency": "AWG",
    "capital": "Oranjestad",
    "languages": ["nl", "pa"],
    "nameNative": "Aruba"
  },
  "AU": {
    "name": "Australia",
    "flag": "ğŸ‡¦ğŸ‡º",
    "code": "+61",
    "currency": "AUD",
    "capital": "Canberra",
    "languages": ["en"],
    "nameNative": "Australia"
  },
  "AT": {
    "name": "Austria",
    "flag": "ğŸ‡¦ğŸ‡¹",
    "code": "+43",
    "currency": "EUR",
    "capital": "Vienna",
    "languages": ["de"],
    "nameNative": "Ã–sterreich"
  },
  "AZ": {
    "name": "Azerbaijan",
    "flag": "ğŸ‡¦ğŸ‡¿",
    "code": "+994",
    "currency": "AZN",
    "capital": "Baku",
    "languages": ["az"],
    "nameNative": "AzÉ™rbaycan"
  },
  "BS": {
    "name": "Bahamas",
    "flag": "ğŸ‡§ğŸ‡¸",
    "code": "+1242",
    "currency": "BSD",
    "capital": "Nassau",
    "languages": ["en"],
    "nameNative": "Bahamas"
  },
  "BH": {
    "name": "Bahrain",
    "flag": "ğŸ‡§ğŸ‡­",
    "code": "+973",
    "currency": "BHD",
    "capital": "Manama",
    "languages": ["ar"],
    "nameNative": "â€Ø§Ù„Ø¨Ø­Ø±ÙŠÙ†"
  },
  "BD": {
    "name": "Bangladesh",
    "flag": "ğŸ‡§ğŸ‡©",
    "code": "+880",
    "currency": "BDT",
    "capital": "Dhaka",
    "languages": ["bn"],
    "nameNative": "Bangladesh"
  },
  "BB": {
    "name": "Barbados",
    "flag": "ğŸ‡§ğŸ‡§",
    "code": "+1246",
    "currency": "BBD",
    "capital": "Bridgetown",
    "languages": ["en"],
    "nameNative": "Barbados"
  },
  "BY": {
    "name": "Belarus",
    "flag": "ğŸ‡§ğŸ‡¾",
    "code": "+375",
    "currency": "BYR",
    "capital": "Minsk",
    "languages": ["be", "ru"],
    "nameNative": "Ğ‘ĞµĞ»Ğ°Ñ€ÑƒÌÑÑŒ"
  },
  "BE": {
    "name": "Belgium",
    "flag": "ğŸ‡§ğŸ‡ª",
    "code": "+32",
    "currency": "EUR",
    "capital": "Brussels",
    "languages": ["nl", "fr", "de"],
    "nameNative": "BelgiÃ«"
  },
  "BZ": {
    "name": "Belize",
    "flag": "ğŸ‡§ğŸ‡¿",
    "code": "+501",
    "currency": "BZD",
    "capital": "Belmopan",
    "languages": ["en", "es"],
    "nameNative": "Belize"
  },
  "BJ": {
    "name": "Benin",
    "flag": "ğŸ‡§ğŸ‡¯",
    "code": "+229",
    "currency": "XOF",
    "capital": "Porto-Novo",
    "languages": ["fr"],
    "nameNative": "BÃ©nin"
  },
  "BM": {
    "name": "Bermuda",
    "flag": "ğŸ‡§ğŸ‡²",
    "code": "+1441",
    "currency": "BMD",
    "capital": "Hamilton",
    "languages": ["en"],
    "nameNative": "Bermuda"
  },
  "BT": {
    "name": "Bhutan",
    "flag": "ğŸ‡§ğŸ‡¹",
    "code": "+975",
    "currency": "BTN",
    "capital": "Thimphu",
    "languages": ["dz"],
    "nameNative": "Ê¼brug-yul"
  },
  "BO": {
    "name": "Bolivia, Plurinational State of bolivia",
    "flag": "ğŸ‡§ğŸ‡´",
    "code": "+591",
    "currency": "BOB",
    "capital": "Sucre",
    "languages": ["es", "ay", "qu"],
    "nameNative": "Bolivia"
  },
  "BA": {
    "name": "Bosnia and Herzegovina",
    "flag": "ğŸ‡§ğŸ‡¦",
    "code": "+387",
    "currency": "BAM",
    "capital": "Sarajevo",
    "languages": ["bs", "hr", "sr"],
    "nameNative": "Bosna i Hercegovina"
  },
  "BW": {
    "name": "Botswana",
    "flag": "ğŸ‡§ğŸ‡¼",
    "code": "+267",
    "currency": "BWP",
    "capital": "Gaborone",
    "languages": ["en", "tn"],
    "nameNative": "Botswana"
  },
  "BV": {
    "name": "Bouvet Island",
    "flag": "ğŸ‡§ğŸ‡»",
    "code": "+47",
    "currency": "NOK",
    "capital": "",
    "languages": ["no", "nb", "nn"],
    "nameNative": "BouvetÃ¸ya"
  },
  "BR": {
    "name": "Brazil",
    "flag": "ğŸ‡§ğŸ‡·",
    "code": "+55",
    "currency": "BRL",
    "capital": "BrasÃ­lia",
    "languages": ["pt"],
    "nameNative": "Brasil"
  },
  "IO": {
    "name": "British Indian Ocean Territory",
    "flag": "ğŸ‡®ğŸ‡´",
    "code": "+246",
    "currency": "USD",
    "capital": "Diego Garcia",
    "languages": ["en"],
    "nameNative": "British Indian Ocean Territory"
  },
  "BN": {
    "name": "Brunei Darussalam",
    "flag": "ğŸ‡§ğŸ‡³",
    "code": "+673",
    "currency": "BND",
    "capital": "Bandar Seri Begawan",
    "languages": ["ms"],
    "nameNative": "Negara Brunei Darussalam"
  },
  "BG": {
    "name": "Bulgaria",
    "flag": "ğŸ‡§ğŸ‡¬",
    "code": "+359",
    "currency": "BGN",
    "capital": "Sofia",
    "languages": ["bg"],
    "nameNative": "Ğ‘ÑŠĞ»Ğ³Ğ°Ñ€Ğ¸Ñ"
  },
  "BF": {
    "name": "Burkina Faso",
    "flag": "ğŸ‡§ğŸ‡«",
    "code": "+226",
    "currency": "XOF",
    "capital": "Ouagadougou",
    "languages": ["fr", "ff"],
    "nameNative": "Burkina Faso"
  },
  "BI": {
    "name": "Burundi",
    "flag": "ğŸ‡§ğŸ‡®",
    "code": "+257",
    "currency": "BIF",
    "capital": "Bujumbura",
    "languages": ["fr", "rn"],
    "nameNative": "Burundi"
  },
  "KH": {
    "name": "Cambodia",
    "flag": "ğŸ‡°ğŸ‡­",
    "code": "+855",
    "currency": "KHR",
    "capital": "Phnom Penh",
    "languages": ["km"],
    "nameNative": "KÃ¢mpÅ­chÃ©a"
  },
  "CM": {
    "name": "Cameroon",
    "flag": "ğŸ‡¨ğŸ‡²",
    "code": "+237",
    "currency": "XAF",
    "capital": "YaoundÃ©",
    "languages": ["en", "fr"],
    "nameNative": "Cameroon"
  },
  "CA": {
    "name": "Canada",
    "flag": "ğŸ‡¨ğŸ‡¦",
    "code": "+1",
    "currency": "CAD",
    "capital": "Ottawa",
    "languages": ["en", "fr"],
    "nameNative": "Canada"
  },
  "CV": {
    "name": "Cape Verde",
    "flag": "ğŸ‡¨ğŸ‡»",
    "code": "+238",
    "currency": "CVE",
    "capital": "Praia",
    "languages": ["pt"],
    "nameNative": "Cabo Verde"
  },
  "KY": {
    "name": "Cayman Islands",
    "flag": "ğŸ‡°ğŸ‡¾",
    "code": "+ 345",
    "currency": "KYD",
    "capital": "George Town",
    "languages": ["en"],
    "nameNative": "Cayman Islands"
  },
  "CF": {
    "name": "Central African Republic",
    "flag": "ğŸ‡¨ğŸ‡«",
    "code": "+236",
    "currency": "XAF",
    "capital": "Bangui",
    "languages": ["fr", "sg"],
    "nameNative": "KÃ¶dÃ¶rÃ¶sÃªse tÃ® BÃªafrÃ®ka"
  },
  "TD": {
    "name": "Chad",
    "flag": "ğŸ‡¹ğŸ‡©",
    "code": "+235",
    "currency": "XAF",
    "capital": "N'Djamena",
    "languages": ["fr", "ar"],
    "nameNative": "Tchad"
  },
  "CL": {
    "name": "Chile",
    "flag": "ğŸ‡¨ğŸ‡±",
    "code": "+56",
    "currency": "CLP",
    "capital": "Santiago",
    "languages": ["es"],
    "nameNative": "Chile"
  },
  "CN": {
    "name": "China",
    "flag": "ğŸ‡¨ğŸ‡³",
    "code": "+86",
    "currency": "CNY",
    "capital": "Beijing",
    "languages": ["zh"],
    "nameNative": "ä¸­å›½"
  },
  "CX": {
    "name": "Christmas Island",
    "flag": "ğŸ‡¨ğŸ‡½",
    "code": "+61",
    "currency": "AUD",
    "capital": "Flying Fish Cove",
    "languages": ["en"],
    "nameNative": "Christmas Island"
  },
  "CC": {
    "name": "Cocos (Keeling) Islands",
    "flag": "ğŸ‡¨ğŸ‡¨",
    "code": "+61",
    "currency": "AUD",
    "capital": "West Island",
    "languages": ["en"],
    "nameNative": "Cocos (Keeling) Islands"
  },
  "CO": {
    "name": "Colombia",
    "flag": "ğŸ‡¨ğŸ‡´",
    "code": "+57",
    "currency": "COP",
    "capital": "BogotÃ¡",
    "languages": ["es"],
    "nameNative": "Colombia"
  },
  "KM": {
    "name": "Comoros",
    "flag": "ğŸ‡°ğŸ‡²",
    "code": "+269",
    "currency": "KMF",
    "capital": "Moroni",
    "languages": ["ar", "fr"],
    "nameNative": "Komori"
  },
  "CG": {
    "name": "Congo",
    "flag": "ğŸ‡¨ğŸ‡¬",
    "code": "+242",
    "currency": "XAF",
    "capital": "Brazzaville",
    "languages": ["fr", "ln"],
    "nameNative": "RÃ©publique du Congo"
  },
  "CD": {
    "name": "Congo, The Democratic Republic of the Congo",
    "flag": "ğŸ‡¨ğŸ‡©",
    "code": "+243",
    "currency": "CDF",
    "capital": "Kinshasa",
    "languages": ["fr", "ln", "kg", "sw", "lu"],
    "nameNative": "RÃ©publique dÃ©mocratique du Congo"
  },
  "CK": {
    "name": "Cook Islands",
    "flag": "ğŸ‡¨ğŸ‡°",
    "code": "+682",
    "currency": "NZD",
    "capital": "Avarua",
    "languages": ["en"],
    "nameNative": "Cook Islands"
  },
  "CR": {
    "name": "Costa Rica",
    "flag": "ğŸ‡¨ğŸ‡·",
    "code": "+506",
    "currency": "CRC",
    "capital": "San JosÃ©",
    "languages": ["es"],
    "nameNative": "Costa Rica"
  },
  "CI": {
    "name": "Cote d'Ivoire",
    "flag": "ğŸ‡¨ğŸ‡®",
    "code": "+225",
    "currency": "XOF",
    "capital": "Yamoussoukro",
    "languages": ["fr"],
    "nameNative": "CÃ´te d'Ivoire"
  },
  "HR": {
    "name": "Croatia",
    "flag": "ğŸ‡­ğŸ‡·",
    "code": "+385",
    "currency": "HRK",
    "capital": "Zagreb",
    "languages": ["hr"],
    "nameNative": "Hrvatska"
  },
  "CU": {
    "name": "Cuba",
    "flag": "ğŸ‡¨ğŸ‡º",
    "code": "+53",
    "currency": "CUP",
    "capital": "Havana",
    "languages": ["es"],
    "nameNative": "Cuba"
  },
  "CY": {
    "name": "Cyprus",
    "flag": "ğŸ‡¨ğŸ‡¾",
    "code": "+357",
    "currency": "EUR",
    "capital": "Nicosia",
    "languages": ["el", "tr", "hy"],
    "nameNative": "ÎšÏÏ€ÏÎ¿Ï‚"
  },
  "CZ": {
    "name": "Czech Republic",
    "flag": "ğŸ‡¨ğŸ‡¿",
    "code": "+420",
    "currency": "CZK",
    "capital": "Prague",
    "languages": ["cs", "sk"],
    "nameNative": "ÄŒeskÃ¡ republika"
  },
  "DK": {
    "name": "Denmark",
    "flag": "ğŸ‡©ğŸ‡°",
    "code": "+45",
    "currency": "DKK",
    "capital": "Copenhagen",
    "languages": ["da"],
    "nameNative": "Danmark"
  },
  "DJ": {
    "name": "Djibouti",
    "flag": "ğŸ‡©ğŸ‡¯",
    "code": "+253",
    "currency": "DJF",
    "capital": "Djibouti",
    "languages": ["fr", "ar"],
    "nameNative": "Djibouti"
  },
  "DM": {
    "name": "Dominica",
    "flag": "ğŸ‡©ğŸ‡²",
    "code": "+1767",
    "currency": "XCD",
    "capital": "Roseau",
    "languages": ["en"],
    "nameNative": "Dominica"
  },
  "DO": {
    "name": "Dominican Republic",
    "flag": "ğŸ‡©ğŸ‡´",
    "code": "+1849",
    "currency": "DOP",
    "capital": "Santo Domingo",
    "languages": ["es"],
    "nameNative": "RepÃºblica Dominicana"
  },
  "EC": {
    "name": "Ecuador",
    "flag": "ğŸ‡ªğŸ‡¨",
    "code": "+593",
    "currency": "USD",
    "capital": "Quito",
    "languages": ["es"],
    "nameNative": "Ecuador"
  },
  "EG": {
    "name": "Egypt",
    "flag": "ğŸ‡ªğŸ‡¬",
    "code": "+20",
    "currency": "EGP",
    "capital": "Cairo",
    "languages": ["ar"],
    "nameNative": "Ù…ØµØ±â€"
  },
  "SV": {
    "name": "El Salvador",
    "flag": "ğŸ‡¸ğŸ‡»",
    "code": "+503",
    "currency": "USD",
    "capital": "San Salvador",
    "languages": ["es"],
    "nameNative": "El Salvador"
  },
  "GQ": {
    "name": "Equatorial Guinea",
    "flag": "ğŸ‡¬ğŸ‡¶",
    "code": "+240",
    "currency": "XAF",
    "capital": "Malabo",
    "languages": ["es", "fr"],
    "nameNative": "Guinea Ecuatorial"
  },
  "ER": {
    "name": "Eritrea",
    "flag": "ğŸ‡ªğŸ‡·",
    "code": "+291",
    "currency": "ERN",
    "capital": "Asmara",
    "languages": ["ti", "ar", "en"],
    "nameNative": "áŠ¤áˆ­á‰µáˆ«"
  },
  "EE": {
    "name": "Estonia",
    "flag": "ğŸ‡ªğŸ‡ª",
    "code": "+372",
    "currency": "EUR",
    "capital": "Tallinn",
    "languages": ["et"],
    "nameNative": "Eesti"
  },
  "ET": {
    "name": "Ethiopia",
    "flag": "ğŸ‡ªğŸ‡¹",
    "code": "+251",
    "currency": "ETB",
    "capital": "Addis Ababa",
    "languages": ["am"],
    "nameNative": "áŠ¢á‰µá‹®áŒµá‹«"
  },
  "FK": {
    "name": "Falkland Islands (Malvinas)",
    "flag": "ğŸ‡«ğŸ‡°",
    "code": "+500",
    "currency": "FKP",
    "capital": "Stanley",
    "languages": ["en"],
    "nameNative": "Falkland Islands"
  },
  "FO": {
    "name": "Faroe Islands",
    "flag": "ğŸ‡«ğŸ‡´",
    "code": "+298",
    "currency": "DKK",
    "capital": "TÃ³rshavn",
    "languages": ["fo"],
    "nameNative": "FÃ¸royar"
  },
  "FJ": {
    "name": "Fiji",
    "flag": "ğŸ‡«ğŸ‡¯",
    "code": "+679",
    "currency": "FJD",
    "capital": "Suva",
    "languages": ["en", "fj", "hi", "ur"],
    "nameNative": "Fiji"
  },
  "FI": {
    "name": "Finland",
    "flag": "ğŸ‡«ğŸ‡®",
    "code": "+358",
    "currency": "EUR",
    "capital": "Helsinki",
    "languages": ["fi", "sv"],
    "nameNative": "Suomi"
  },
  "FR": {
    "name": "France",
    "flag": "ğŸ‡«ğŸ‡·",
    "code": "+33",
    "currency": "EUR",
    "capital": "Paris",
    "languages": ["fr"],
    "nameNative": "France"
  },
  "GF": {
    "name": "French Guiana",
    "flag": "ğŸ‡¬ğŸ‡«",
    "code": "+594",
    "currency": "EUR",
    "capital": "Cayenne",
    "languages": ["fr"],
    "nameNative": "Guyane franÃ§aise"
  },
  "PF": {
    "name": "French Polynesia",
    "flag": "ğŸ‡µğŸ‡«",
    "code": "+689",
    "currency": "XPF",
    "capital": "PapeetÄ“",
    "languages": ["fr"],
    "nameNative": "PolynÃ©sie franÃ§aise"
  },
  "TF": {
    "name": "French Southern Territories",
    "flag": "ğŸ‡¹ğŸ‡«",
    "code": "+262",
    "currency": "EUR",
    "capital": "Port-aux-FranÃ§ais",
    "languages": ["fr"],
    "nameNative": "Territoire des Terres australes et antarctiques fr"
  },
  "GA": {
    "name": "Gabon",
    "flag": "ğŸ‡¬ğŸ‡¦",
    "code": "+241",
    "currency": "XAF",
    "capital": "Libreville",
    "languages": ["fr"],
    "nameNative": "Gabon"
  },
  "GM": {
    "name": "Gambia",
    "flag": "ğŸ‡¬ğŸ‡²",
    "code": "+220",
    "currency": "GMD",
    "capital": "Banjul",
    "languages": ["en"],
    "nameNative": "Gambia"
  },
  "GE": {
    "name": "Georgia",
    "flag": "ğŸ‡¬ğŸ‡ª",
    "code": "+995",
    "currency": "GEL",
    "capital": "Tbilisi",
    "languages": ["ka"],
    "nameNative": "áƒ¡áƒáƒ¥áƒáƒ áƒ—áƒ•áƒ”áƒšáƒ"
  },
  "DE": {
    "name": "Germany",
    "flag": "ğŸ‡©ğŸ‡ª",
    "code": "+49",
    "currency": "EUR",
    "capital": "Berlin",
    "languages": ["de"],
    "nameNative": "Deutschland"
  },
  "GH": {
    "name": "Ghana",
    "flag": "ğŸ‡¬ğŸ‡­",
    "code": "+233",
    "currency": "GHS",
    "capital": "Accra",
    "languages": ["en"],
    "nameNative": "Ghana"
  },
  "GI": {
    "name": "Gibraltar",
    "flag": "ğŸ‡¬ğŸ‡®",
    "code": "+350",
    "currency": "GIP",
    "capital": "Gibraltar",
    "languages": ["en"],
    "nameNative": "Gibraltar"
  },
  "GR": {
    "name": "Greece",
    "flag": "ğŸ‡¬ğŸ‡·",
    "code": "+30",
    "currency": "EUR",
    "capital": "Athens",
    "languages": ["el"],
    "nameNative": "Î•Î»Î»Î¬Î´Î±"
  },
  "GL": {
    "name": "Greenland",
    "flag": "ğŸ‡¬ğŸ‡±",
    "code": "+299",
    "currency": "DKK",
    "capital": "Nuuk",
    "languages": ["kl"],
    "nameNative": "Kalaallit Nunaat"
  },
  "GD": {
    "name": "Grenada",
    "flag": "ğŸ‡¬ğŸ‡©",
    "code": "+1473",
    "currency": "XCD",
    "capital": "St. George's",
    "languages": ["en"],
    "nameNative": "Grenada"
  },
  "GP": {
    "name": "Guadeloupe",
    "flag": "ğŸ‡¬ğŸ‡µ",
    "code": "+590",
    "currency": "EUR",
    "capital": "Basse-Terre",
    "languages": ["fr"],
    "nameNative": "Guadeloupe"
  },
  "GU": {
    "name": "Guam",
    "flag": "ğŸ‡¬ğŸ‡º",
    "code": "+1671",
    "currency": "USD",
    "capital": "HagÃ¥tÃ±a",
    "languages": ["en", "ch", "es"],
    "nameNative": "Guam"
  },
  "GT": {
    "name": "Guatemala",
    "flag": "ğŸ‡¬ğŸ‡¹",
    "code": "+502",
    "currency": "GTQ",
    "capital": "Guatemala City",
    "languages": ["es"],
    "nameNative": "Guatemala"
  },
  "GG": {
    "name": "Guernsey",
    "flag": "ğŸ‡¬ğŸ‡¬",
    "code": "+44",
    "currency": "GBP",
    "capital": "St. Peter Port",
    "languages": ["en", "fr"],
    "nameNative": "Guernsey"
  },
  "GN": {
    "name": "Guinea",
    "flag": "ğŸ‡¬ğŸ‡³",
    "code": "+224",
    "currency": "GNF",
    "capital": "Conakry",
    "languages": ["fr", "ff"],
    "nameNative": "GuinÃ©e"
  },
  "GW": {
    "name": "Guinea-Bissau",
    "flag": "ğŸ‡¬ğŸ‡¼",
    "code": "+245",
    "currency": "XOF",
    "capital": "Bissau",
    "languages": ["pt"],
    "nameNative": "GuinÃ©-Bissau"
  },
  "GY": {
    "name": "Guyana",
    "flag": "ğŸ‡¬ğŸ‡¾",
    "code": "+592",
    "currency": "GYD",
    "capital": "Georgetown",
    "languages": ["en"],
    "nameNative": "Guyana"
  },
  "HT": {
    "name": "Haiti",
    "flag": "ğŸ‡­ğŸ‡¹",
    "code": "+509",
    "currency": "HTG",
    "capital": "Port-au-Prince",
    "languages": ["fr", "ht"],
    "nameNative": "HaÃ¯ti"
  },
  "HM": {
    "name": "Heard Island and Mcdonald Islands",
    "flag": "ğŸ‡­ğŸ‡²",
    "code": "+0",
    "currency": "AUD",
    "capital": "",
    "languages": ["en"],
    "nameNative": "Heard Island and McDonald Islands"
  },
  "VA": {
    "name": "Holy See (Vatican City State)",
    "flag": "ğŸ‡»ğŸ‡¦",
    "code": "+379",
    "currency": "EUR",
    "capital": "Vatican City",
    "languages": ["it", "la"],
    "nameNative": "Vaticano"
  },
  "HN": {
    "name": "Honduras",
    "flag": "ğŸ‡­ğŸ‡³",
    "code": "+504",
    "currency": "HNL",
    "capital": "Tegucigalpa",
    "languages": ["es"],
    "nameNative": "Honduras"
  },
  "HK": {
    "name": "Hong Kong",
    "flag": "ğŸ‡­ğŸ‡°",
    "code": "+852",
    "currency": "HKD",
    "capital": "City of Victoria",
    "languages": ["zh", "en"],
    "nameNative": "é¦™æ¸¯"
  },
  "HU": {
    "name": "Hungary",
    "flag": "ğŸ‡­ğŸ‡º",
    "code": "+36",
    "currency": "HUF",
    "capital": "Budapest",
    "languages": ["hu"],
    "nameNative": "MagyarorszÃ¡g"
  },
  "IS": {
    "name": "Iceland",
    "flag": "ğŸ‡®ğŸ‡¸",
    "code": "+354",
    "currency": "ISK",
    "capital": "Reykjavik",
    "languages": ["is"],
    "nameNative": "Ãsland"
  },
  "IN": {
    "name": "India",
    "flag": "ğŸ‡®ğŸ‡³",
    "code": "+91",
    "currency": "INR",
    "capital": "New Delhi",
    "languages": ["hi", "en"],
    "nameNative": "à¤­à¤¾à¤°à¤¤"
  },
  "ID": {
    "name": "Indonesia",
    "flag": "ğŸ‡®ğŸ‡©",
    "code": "+62",
    "currency": "IDR",
    "capital": "Jakarta",
    "languages": ["id"],
    "nameNative": "Indonesia"
  },
  "IR": {
    "name": "Iran, Islamic Republic of Persian Gulf",
    "flag": "ğŸ‡®ğŸ‡·",
    "code": "+98",
    "currency": "IRR",
    "capital": "Tehran",
    "languages": ["fa"],
    "nameNative": "Ø§ÛŒØ±Ø§Ù†"
  },
  "IQ": {
    "name": "Iraq",
    "flag": "ğŸ‡®ğŸ‡¶",
    "code": "+964",
    "currency": "IQD",
    "capital": "Baghdad",
    "languages": ["ar", "ku"],
    "nameNative": "Ø§Ù„Ø¹Ø±Ø§Ù‚"
  },
  "IE": {
    "name": "Ireland",
    "flag": "ğŸ‡®ğŸ‡ª",
    "code": "+353",
    "currency": "EUR",
    "capital": "Dublin",
    "languages": ["ga", "en"],
    "nameNative": "Ã‰ire"
  },
  "IM": {
    "name": "Isle of Man",
    "flag": "ğŸ‡®ğŸ‡²",
    "code": "+44",
    "currency": "GBP",
    "capital": "Douglas",
    "languages": ["en", "gv"],
    "nameNative": "Isle of Man"
  },
  "IL": {
    "name": "Israel",
    "flag": "ğŸ‡®ğŸ‡±",
    "code": "+972",
    "currency": "ILS",
    "capital": "Jerusalem",
    "languages": ["he", "ar"],
    "nameNative": "×™Ö´×©Ö°×‚×¨Ö¸×Öµ×œ"
  },
  "IT": {
    "name": "Italy",
    "flag": "ğŸ‡®ğŸ‡¹",
    "code": "+39",
    "currency": "EUR",
    "capital": "Rome",
    "languages": ["it"],
    "nameNative": "Italia"
  },
  "JM": {
    "name": "Jamaica",
    "flag": "ğŸ‡¯ğŸ‡²",
    "code": "+1876",
    "currency": "JMD",
    "capital": "Kingston",
    "languages": ["en"],
    "nameNative": "Jamaica"
  },
  "JP": {
    "name": "Japan",
    "flag": "ğŸ‡¯ğŸ‡µ",
    "code": "+81",
    "currency": "JPY",
    "capital": "Tokyo",
    "languages": ["ja"],
    "nameNative": "æ—¥æœ¬"
  },
  "JE": {
    "name": "Jersey",
    "flag": "ğŸ‡¯ğŸ‡ª",
    "code": "+44",
    "currency": "GBP",
    "capital": "Saint Helier",
    "languages": ["en", "fr"],
    "nameNative": "Jersey"
  },
  "JO": {
    "name": "Jordan",
    "flag": "ğŸ‡¯ğŸ‡´",
    "code": "+962",
    "currency": "JOD",
    "capital": "Amman",
    "languages": ["ar"],
    "nameNative": "Ø§Ù„Ø£Ø±Ø¯Ù†"
  },
  "KZ": {
    "name": "Kazakhstan",
    "flag": "ğŸ‡°ğŸ‡¿",
    "code": "+7",
    "currency": "KZT",
    "capital": "Astana",
    "languages": ["kk", "ru"],
    "nameNative": "ÒšĞ°Ğ·Ğ°Ò›ÑÑ‚Ğ°Ğ½"
  },
  "KE": {
    "name": "Kenya",
    "flag": "ğŸ‡°ğŸ‡ª",
    "code": "+254",
    "currency": "KES",
    "capital": "Nairobi",
    "languages": ["en", "sw"],
    "nameNative": "Kenya"
  },
  "KI": {
    "name": "Kiribati",
    "flag": "ğŸ‡°ğŸ‡®",
    "code": "+686",
    "currency": "AUD",
    "capital": "South Tarawa",
    "languages": ["en"],
    "nameNative": "Kiribati"
  },
  "KP": {
    "name": "Korea, Democratic People's Republic of Korea",
    "flag": "ğŸ‡°ğŸ‡µ",
    "code": "+850",
    "currency": "KPW",
    "capital": "Pyongyang",
    "languages": ["ko"],
    "nameNative": "ë¶í•œ"
  },
  "KR": {
    "name": "Korea, Republic of South Korea",
    "flag": "ğŸ‡°ğŸ‡·",
    "code": "+82",
    "currency": "KRW",
    "capital": "Seoul",
    "languages": ["ko"],
    "nameNative": "ëŒ€í•œë¯¼êµ­"
  },
  "XK": {
    "name": "Kosovo",
    "flag": "ğŸ‡½ğŸ‡°",
    "code": "+383",
    "currency": "EUR",
    "capital": "Pristina",
    "languages": ["sq", "sr"],
    "nameNative": "Republika e KosovÃ«s"
  },
  "KW": {
    "name": "Kuwait",
    "flag": "ğŸ‡°ğŸ‡¼",
    "code": "+965",
    "currency": "KWD",
    "capital": "Kuwait City",
    "languages": ["ar"],
    "nameNative": "Ø§Ù„ÙƒÙˆÙŠØª"
  },
  "KG": {
    "name": "Kyrgyzstan",
    "flag": "ğŸ‡°ğŸ‡¬",
    "code": "+996",
    "currency": "KGS",
    "capital": "Bishkek",
    "languages": ["ky", "ru"],
    "nameNative": "ĞšÑ‹Ñ€Ğ³Ñ‹Ğ·ÑÑ‚Ğ°Ğ½"
  },
  "LA": {
    "name": "Laos",
    "flag": "ğŸ‡±ğŸ‡¦",
    "code": "+856",
    "currency": "LAK",
    "capital": "Vientiane",
    "languages": ["lo"],
    "nameNative": "àºªàº›àº›àº¥àº²àº§"
  },
  "LV": {
    "name": "Latvia",
    "flag": "ğŸ‡±ğŸ‡»",
    "code": "+371",
    "currency": "EUR",
    "capital": "Riga",
    "languages": ["lv"],
    "nameNative": "Latvija"
  },
  "LB": {
    "name": "Lebanon",
    "flag": "ğŸ‡±ğŸ‡§",
    "code": "+961",
    "currency": "LBP",
    "capital": "Beirut",
    "languages": ["ar", "fr"],
    "nameNative": "Ù„Ø¨Ù†Ø§Ù†"
  },
  "LS": {
    "name": "Lesotho",
    "flag": "ğŸ‡±ğŸ‡¸",
    "code": "+266",
    "currency": "LSL",
    "capital": "Maseru",
    "languages": ["en", "st"],
    "nameNative": "Lesotho"
  },
  "LR": {
    "name": "Liberia",
    "flag": "ğŸ‡±ğŸ‡·",
    "code": "+231",
    "currency": "LRD",
    "capital": "Monrovia",
    "languages": ["en"],
    "nameNative": "Liberia"
  },
  "LY": {
    "name": "Libyan Arab Jamahiriya",
    "flag": "ğŸ‡±ğŸ‡¾",
    "code": "+218",
    "currency": "LYD",
    "capital": "Tripoli",
    "languages": ["ar"],
    "nameNative": "â€Ù„ÙŠØ¨ÙŠØ§"
  },
  "LI": {
    "name": "Liechtenstein",
    "flag": "ğŸ‡±ğŸ‡®",
    "code": "+423",
    "currency": "CHF",
    "capital": "Vaduz",
    "languages": ["de"],
    "nameNative": "Liechtenstein"
  },
  "LT": {
    "name": "Lithuania",
    "flag": "ğŸ‡±ğŸ‡¹",
    "code": "+370",
    "currency": "LTL",
    "capital": "Vilnius",
    "languages": ["lt"],
    "nameNative": "Lietuva"
  },
  "LU": {
    "name": "Luxembourg",
    "flag": "ğŸ‡±ğŸ‡º",
    "code": "+352",
    "currency": "EUR",
    "capital": "Luxembourg",
    "languages": ["fr", "de", "lb"],
    "nameNative": "Luxembourg"
  },
  "MO": {
    "name": "Macao",
    "flag": "ğŸ‡²ğŸ‡´",
    "code": "+853",
    "currency": "MOP",
    "capital": "",
    "languages": ["zh", "pt"],
    "nameNative": "æ¾³é–€"
  },
  "MK": {
    "name": "Macedonia",
    "flag": "ğŸ‡²ğŸ‡°",
    "code": "+389",
    "currency": "MKD",
    "capital": "Skopje",
    "languages": ["mk"],
    "nameNative": "ĞœĞ°ĞºĞµĞ´Ğ¾Ğ½Ğ¸Ñ˜Ğ°"
  },
  "MG": {
    "name": "Madagascar",
    "flag": "ğŸ‡²ğŸ‡¬",
    "code": "+261",
    "currency": "MGA",
    "capital": "Antananarivo",
    "languages": ["fr", "mg"],
    "nameNative": "Madagasikara"
  },
  "MW": {
    "name": "Malawi",
    "flag": "ğŸ‡²ğŸ‡¼",
    "code": "+265",
    "currency": "MWK",
    "capital": "Lilongwe",
    "languages": ["en", "ny"],
    "nameNative": "Malawi"
  },
  "MY": {
    "name": "Malaysia",
    "flag": "ğŸ‡²ğŸ‡¾",
    "code": "+60",
    "currency": "MYR",
    "capital": "Kuala Lumpur",
    "languages": ["ms"],
    "nameNative": "Malaysia"
  },
  "MV": {
    "name": "Maldives",
    "flag": "ğŸ‡²ğŸ‡»",
    "code": "+960",
    "currency": "MVR",
    "capital": "MalÃ©",
    "languages": ["dv"],
    "nameNative": "Maldives"
  },
  "ML": {
    "name": "Mali",
    "flag": "ğŸ‡²ğŸ‡±",
    "code": "+223",
    "currency": "XOF",
    "capital": "Bamako",
    "languages": ["fr"],
    "nameNative": "Mali"
  },
  "MT": {
    "name": "Malta",
    "flag": "ğŸ‡²ğŸ‡¹",
    "code": "+356",
    "currency": "EUR",
    "capital": "Valletta",
    "languages": ["mt", "en"],
    "nameNative": "Malta"
  },
  "MH": {
    "name": "Marshall Islands",
    "flag": "ğŸ‡²ğŸ‡­",
    "code": "+692",
    "currency": "USD",
    "capital": "Majuro",
    "languages": ["en", "mh"],
    "nameNative": "MÌ§ajeÄ¼"
  },
  "MQ": {
    "name": "Martinique",
    "flag": "ğŸ‡²ğŸ‡¶",
    "code": "+596",
    "currency": "EUR",
    "capital": "Fort-de-France",
    "languages": ["fr"],
    "nameNative": "Martinique"
  },
  "MR": {
    "name": "Mauritania",
    "flag": "ğŸ‡²ğŸ‡·",
    "code": "+222",
    "currency": "MRO",
    "capital": "Nouakchott",
    "languages": ["ar"],
    "nameNative": "Ù…ÙˆØ±ÙŠØªØ§Ù†ÙŠØ§"
  },
  "MU": {
    "name": "Mauritius",
    "flag": "ğŸ‡²ğŸ‡º",
    "code": "+230",
    "currency": "MUR",
    "capital": "Port Louis",
    "languages": ["en"],
    "nameNative": "Maurice"
  },
  "YT": {
    "name": "Mayotte",
    "flag": "ğŸ‡¾ğŸ‡¹",
    "code": "+262",
    "currency": "EUR",
    "capital": "Mamoudzou",
    "languages": ["fr"],
    "nameNative": "Mayotte"
  },
  "MX": {
    "name": "Mexico",
    "flag": "ğŸ‡²ğŸ‡½",
    "code": "+52",
    "currency": "MXN",
    "capital": "Mexico City",
    "languages": ["es"],
    "nameNative": "MÃ©xico"
  },
  "FM": {
    "name": "Micronesia, Federated States of Micronesia",
    "flag": "ğŸ‡«ğŸ‡²",
    "code": "+691",
    "currency": "USD",
    "capital": "Palikir",
    "languages": ["en"],
    "nameNative": "Micronesia"
  },
  "MD": {
    "name": "Moldova",
    "flag": "ğŸ‡²ğŸ‡©",
    "code": "+373",
    "currency": "MDL",
    "capital": "ChiÈ™inÄƒu",
    "languages": ["ro"],
    "nameNative": "Moldova"
  },
  "MC": {
    "name": "Monaco",
    "flag": "ğŸ‡²ğŸ‡¨",
    "code": "+377",
    "currency": "EUR",
    "capital": "Monaco",
    "languages": ["fr"],
    "nameNative": "Monaco"
  },
  "MN": {
    "name": "Mongolia",
    "flag": "ğŸ‡²ğŸ‡³",
    "code": "+976",
    "currency": "MNT",
    "capital": "Ulan Bator",
    "languages": ["mn"],
    "nameNative": "ĞœĞ¾Ğ½Ğ³Ğ¾Ğ» ÑƒĞ»Ñ"
  },
  "ME": {
    "name": "Montenegro",
    "flag": "ğŸ‡²ğŸ‡ª",
    "code": "+382",
    "currency": "EUR",
    "capital": "Podgorica",
    "languages": ["sr", "bs", "sq", "hr"],
    "nameNative": "Ğ¦Ñ€Ğ½Ğ° Ğ“Ğ¾Ñ€Ğ°"
  },
  "MS": {
    "name": "Montserrat",
    "flag": "ğŸ‡²ğŸ‡¸",
    "code": "+1664",
    "currency": "XCD",
    "capital": "Plymouth",
    "languages": ["en"],
    "nameNative": "Montserrat"
  },
  "MA": {
    "name": "Morocco",
    "flag": "ğŸ‡²ğŸ‡¦",
    "code": "+212",
    "currency": "MAD",
    "capital": "Rabat",
    "languages": ["ar"],
    "nameNative": "Ø§Ù„Ù…ØºØ±Ø¨"
  },
  "MZ": {
    "name": "Mozambique",
    "flag": "ğŸ‡²ğŸ‡¿",
    "code": "+258",
    "currency": "MZN",
    "capital": "Maputo",
    "languages": ["pt"],
    "nameNative": "MoÃ§ambique"
  },
  "MM": {
    "name": "Myanmar",
    "flag": "ğŸ‡²ğŸ‡²",
    "code": "+95",
    "currency": "MMK",
    "capital": "Naypyidaw",
    "languages": ["my"],
    "nameNative": "á€™á€¼á€”á€ºá€™á€¬"
  },
  "NA": {
    "name": "Namibia",
    "flag": "ğŸ‡³ğŸ‡¦",
    "code": "+264",
    "currency": "NAD",
    "capital": "Windhoek",
    "languages": ["en", "af"],
    "nameNative": "Namibia"
  },
  "NR": {
    "name": "Nauru",
    "flag": "ğŸ‡³ğŸ‡·",
    "code": "+674",
    "currency": "AUD",
    "capital": "Yaren",
    "languages": ["en", "na"],
    "nameNative": "Nauru"
  },
  "NP": {
    "name": "Nepal",
    "flag": "ğŸ‡³ğŸ‡µ",
    "code": "+977",
    "currency": "NPR",
    "capital": "Kathmandu",
    "languages": ["ne"],
    "nameNative": "à¤¨à¤ªà¤²"
  },
  "NL": {
    "name": "Netherlands",
    "flag": "ğŸ‡³ğŸ‡±",
    "code": "+31",
    "currency": "EUR",
    "capital": "Amsterdam",
    "languages": ["nl"],
    "nameNative": "Nederland"
  },
  "AN": { "name": "Netherlands Antilles", "flag": "", "code": "+599" },
  "NC": {
    "name": "New Caledonia",
    "flag": "ğŸ‡³ğŸ‡¨",
    "code": "+687",
    "currency": "XPF",
    "capital": "NoumÃ©a",
    "languages": ["fr"],
    "nameNative": "Nouvelle-CalÃ©donie"
  },
  "NZ": {
    "name": "New Zealand",
    "flag": "ğŸ‡³ğŸ‡¿",
    "code": "+64",
    "currency": "NZD",
    "capital": "Wellington",
    "languages": ["en", "mi"],
    "nameNative": "New Zealand"
  },
  "NI": {
    "name": "Nicaragua",
    "flag": "ğŸ‡³ğŸ‡®",
    "code": "+505",
    "currency": "NIO",
    "capital": "Managua",
    "languages": ["es"],
    "nameNative": "Nicaragua"
  },
  "NE": {
    "name": "Niger",
    "flag": "ğŸ‡³ğŸ‡ª",
    "code": "+227",
    "currency": "XOF",
    "capital": "Niamey",
    "languages": ["fr"],
    "nameNative": "Niger"
  },
  "NG": {
    "name": "Nigeria",
    "flag": "ğŸ‡³ğŸ‡¬",
    "code": "+234",
    "currency": "NGN",
    "capital": "Abuja",
    "languages": ["en"],
    "nameNative": "Nigeria"
  },
  "NU": {
    "name": "Niue",
    "flag": "ğŸ‡³ğŸ‡º",
    "code": "+683",
    "currency": "NZD",
    "capital": "Alofi",
    "languages": ["en"],
    "nameNative": "NiuÄ“"
  },
  "NF": {
    "name": "Norfolk Island",
    "flag": "ğŸ‡³ğŸ‡«",
    "code": "+672",
    "currency": "AUD",
    "capital": "Kingston",
    "languages": ["en"],
    "nameNative": "Norfolk Island"
  },
  "MP": {
    "name": "Northern Mariana Islands",
    "flag": "ğŸ‡²ğŸ‡µ",
    "code": "+1670",
    "currency": "USD",
    "capital": "Saipan",
    "languages": ["en", "ch"],
    "nameNative": "Northern Mariana Islands"
  },
  "NO": {
    "name": "Norway",
    "flag": "ğŸ‡³ğŸ‡´",
    "code": "+47",
    "currency": "NOK",
    "capital": "Oslo",
    "languages": ["no", "nb", "nn"],
    "nameNative": "Norge"
  },
  "OM": {
    "name": "Oman",
    "flag": "ğŸ‡´ğŸ‡²",
    "code": "+968",
    "currency": "OMR",
    "capital": "Muscat",
    "languages": ["ar"],
    "nameNative": "Ø¹Ù…Ø§Ù†"
  },
  "PK": {
    "name": "Pakistan",
    "flag": "ğŸ‡µğŸ‡°",
    "code": "+92",
    "currency": "PKR",
    "capital": "Islamabad",
    "languages": ["en", "ur"],
    "nameNative": "Pakistan"
  },
  "PW": {
    "name": "Palau",
    "flag": "ğŸ‡µğŸ‡¼",
    "code": "+680",
    "currency": "USD",
    "capital": "Ngerulmud",
    "languages": ["en"],
    "nameNative": "Palau"
  },
  "PS": {
    "name": "Palestinian Territory, Occupied",
    "flag": "ğŸ‡µğŸ‡¸",
    "code": "+970",
    "currency": "ILS",
    "capital": "Ramallah",
    "languages": ["ar"],
    "nameNative": "ÙÙ„Ø³Ø·ÙŠÙ†"
  },
  "PA": {
    "name": "Panama",
    "flag": "ğŸ‡µğŸ‡¦",
    "code": "+507",
    "currency": "PAB",
    "capital": "Panama City",
    "languages": ["es"],
    "nameNative": "PanamÃ¡"
  },
  "PG": {
    "name": "Papua New Guinea",
    "flag": "ğŸ‡µğŸ‡¬",
    "code": "+675",
    "currency": "PGK",
    "capital": "Port Moresby",
    "languages": ["en"],
    "nameNative": "Papua Niugini"
  },
  "PY": {
    "name": "Paraguay",
    "flag": "ğŸ‡µğŸ‡¾",
    "code": "+595",
    "currency": "PYG",
    "capital": "AsunciÃ³n",
    "languages": ["es", "gn"],
    "nameNative": "Paraguay"
  },
  "PE": {
    "name": "Peru",
    "flag": "ğŸ‡µğŸ‡ª",
    "code": "+51",
    "currency": "PEN",
    "capital": "Lima",
    "languages": ["es"],
    "nameNative": "PerÃº"
  },
  "PH": {
    "name": "Philippines",
    "flag": "ğŸ‡µğŸ‡­",
    "code": "+63",
    "currency": "PHP",
    "capital": "Manila",
    "languages": ["en"],
    "nameNative": "Pilipinas"
  },
  "PN": {
    "name": "Pitcairn",
    "flag": "ğŸ‡µğŸ‡³",
    "code": "+64",
    "currency": "NZD",
    "capital": "Adamstown",
    "languages": ["en"],
    "nameNative": "Pitcairn Islands"
  },
  "PL": {
    "name": "Poland",
    "flag": "ğŸ‡µğŸ‡±",
    "code": "+48",
    "currency": "PLN",
    "capital": "Warsaw",
    "languages": ["pl"],
    "nameNative": "Polska"
  },
  "PT": {
    "name": "Portugal",
    "flag": "ğŸ‡µğŸ‡¹",
    "code": "+351",
    "currency": "EUR",
    "capital": "Lisbon",
    "languages": ["pt"],
    "nameNative": "Portugal"
  },
  "PR": {
    "name": "Puerto Rico",
    "flag": "ğŸ‡µğŸ‡·",
    "code": "+1939",
    "currency": "USD",
    "capital": "San Juan",
    "languages": ["es", "en"],
    "nameNative": "Puerto Rico"
  },
  "QA": {
    "name": "Qatar",
    "flag": "ğŸ‡¶ğŸ‡¦",
    "code": "+974",
    "currency": "QAR",
    "capital": "Doha",
    "languages": ["ar"],
    "nameNative": "Ù‚Ø·Ø±"
  },
  "RO": {
    "name": "Romania",
    "flag": "ğŸ‡·ğŸ‡´",
    "code": "+40",
    "currency": "RON",
    "capital": "Bucharest",
    "languages": ["ro"],
    "nameNative": "RomÃ¢nia"
  },
  "RU": {
    "name": "Russia",
    "flag": "ğŸ‡·ğŸ‡º",
    "code": "+7",
    "currency": "RUB",
    "capital": "Moscow",
    "languages": ["ru"],
    "nameNative": "Ğ Ğ¾ÑÑĞ¸Ñ"
  },
  "RW": {
    "name": "Rwanda",
    "flag": "ğŸ‡·ğŸ‡¼",
    "code": "+250",
    "currency": "RWF",
    "capital": "Kigali",
    "languages": ["rw", "en", "fr"],
    "nameNative": "Rwanda"
  },
  "RE": {
    "name": "Reunion",
    "flag": "ğŸ‡·ğŸ‡ª",
    "code": "+262",
    "currency": "EUR",
    "capital": "Saint-Denis",
    "languages": ["fr"],
    "nameNative": "La RÃ©union"
  },
  "BL": {
    "name": "Saint Barthelemy",
    "flag": "ğŸ‡§ğŸ‡±",
    "code": "+590",
    "currency": "EUR",
    "capital": "Gustavia",
    "languages": ["fr"],
    "nameNative": "Saint-BarthÃ©lemy"
  },
  "SH": {
    "name": "Saint Helena, Ascension and Tristan Da Cunha",
    "flag": "ğŸ‡¸ğŸ‡­",
    "code": "+290",
    "currency": "SHP",
    "capital": "Jamestown",
    "languages": ["en"],
    "nameNative": "Saint Helena"
  },
  "KN": {
    "name": "Saint Kitts and Nevis",
    "flag": "ğŸ‡°ğŸ‡³",
    "code": "+1869",
    "currency": "XCD",
    "capital": "Basseterre",
    "languages": ["en"],
    "nameNative": "Saint Kitts and Nevis"
  },
  "LC": {
    "name": "Saint Lucia",
    "flag": "ğŸ‡±ğŸ‡¨",
    "code": "+1758",
    "currency": "XCD",
    "capital": "Castries",
    "languages": ["en"],
    "nameNative": "Saint Lucia"
  },
  "MF": {
    "name": "Saint Martin",
    "flag": "ğŸ‡²ğŸ‡«",
    "code": "+590",
    "currency": "EUR",
    "capital": "Marigot",
    "languages": ["en", "fr", "nl"],
    "nameNative": "Saint-Martin"
  },
  "PM": {
    "name": "Saint Pierre and Miquelon",
    "flag": "ğŸ‡µğŸ‡²",
    "code": "+508",
    "currency": "EUR",
    "capital": "Saint-Pierre",
    "languages": ["fr"],
    "nameNative": "Saint-Pierre-et-Miquelon"
  },
  "VC": {
    "name": "Saint Vincent and the Grenadines",
    "flag": "ğŸ‡»ğŸ‡¨",
    "code": "+1784",
    "currency": "XCD",
    "capital": "Kingstown",
    "languages": ["en"],
    "nameNative": "Saint Vincent and the Grenadines"
  },
  "WS": {
    "name": "Samoa",
    "flag": "ğŸ‡¼ğŸ‡¸",
    "code": "+685",
    "currency": "WST",
    "capital": "Apia",
    "languages": ["sm", "en"],
    "nameNative": "Samoa"
  },
  "SM": {
    "name": "San Marino",
    "flag": "ğŸ‡¸ğŸ‡²",
    "code": "+378",
    "currency": "EUR",
    "capital": "City of San Marino",
    "languages": ["it"],
    "nameNative": "San Marino"
  },
  "ST": {
    "name": "Sao Tome and Principe",
    "flag": "ğŸ‡¸ğŸ‡¹",
    "code": "+239",
    "currency": "STD",
    "capital": "SÃ£o TomÃ©",
    "languages": ["pt"],
    "nameNative": "SÃ£o TomÃ© e PrÃ­ncipe"
  },
  "SA": {
    "name": "Saudi Arabia",
    "flag": "ğŸ‡¸ğŸ‡¦",
    "code": "+966",
    "currency": "SAR",
    "capital": "Riyadh",
    "languages": ["ar"],
    "nameNative": "Ø§Ù„Ø¹Ø±Ø¨ÙŠØ© Ø§Ù„Ø³Ø¹ÙˆØ¯ÙŠØ©"
  },
  "SN": {
    "name": "Senegal",
    "flag": "ğŸ‡¸ğŸ‡³",
    "code": "+221",
    "currency": "XOF",
    "capital": "Dakar",
    "languages": ["fr"],
    "nameNative": "SÃ©nÃ©gal"
  },
  "RS": {
    "name": "Serbia",
    "flag": "ğŸ‡·ğŸ‡¸",
    "code": "+381",
    "currency": "RSD",
    "capital": "Belgrade",
    "languages": ["sr"],
    "nameNative": "Ğ¡Ñ€Ğ±Ğ¸Ñ˜Ğ°"
  },
  "SC": {
    "name": "Seychelles",
    "flag": "ğŸ‡¸ğŸ‡¨",
    "code": "+248",
    "currency": "SCR",
    "capital": "Victoria",
    "languages": ["fr", "en"],
    "nameNative": "Seychelles"
  },
  "SL": {
    "name": "Sierra Leone",
    "flag": "ğŸ‡¸ğŸ‡±",
    "code": "+232",
    "currency": "SLL",
    "capital": "Freetown",
    "languages": ["en"],
    "nameNative": "Sierra Leone"
  },
  "SG": {
    "name": "Singapore",
    "flag": "ğŸ‡¸ğŸ‡¬",
    "code": "+65",
    "currency": "SGD",
    "capital": "Singapore",
    "languages": ["en", "ms", "ta", "zh"],
    "nameNative": "Singapore"
  },
  "SK": {
    "name": "Slovakia",
    "flag": "ğŸ‡¸ğŸ‡°",
    "code": "+421",
    "currency": "EUR",
    "capital": "Bratislava",
    "languages": ["sk"],
    "nameNative": "Slovensko"
  },
  "SI": {
    "name": "Slovenia",
    "flag": "ğŸ‡¸ğŸ‡®",
    "code": "+386",
    "currency": "EUR",
    "capital": "Ljubljana",
    "languages": ["sl"],
    "nameNative": "Slovenija"
  },
  "SB": {
    "name": "Solomon Islands",
    "flag": "ğŸ‡¸ğŸ‡§",
    "code": "+677",
    "currency": "SBD",
    "capital": "Honiara",
    "languages": ["en"],
    "nameNative": "Solomon Islands"
  },
  "SO": {
    "name": "Somalia",
    "flag": "ğŸ‡¸ğŸ‡´",
    "code": "+252",
    "currency": "SOS",
    "capital": "Mogadishu",
    "languages": ["so", "ar"],
    "nameNative": "Soomaaliya"
  },
  "ZA": {
    "name": "South Africa",
    "flag": "ğŸ‡¿ğŸ‡¦",
    "code": "+27",
    "currency": "ZAR",
    "capital": "Pretoria",
    "languages": ["af", "en", "nr", "st", "ss", "tn", "ts", "ve", "xh", "zu"],
    "nameNative": "South Africa"
  },
  "SS": {
    "name": "South Sudan",
    "flag": "ğŸ‡¸ğŸ‡¸",
    "code": "+211",
    "capital": "Juba",
    "languages": ["en"],
    "nameNative": "South Sudan"
  },
  "GS": {
    "name": "South Georgia and the South Sandwich Islands",
    "flag": "ğŸ‡¬ğŸ‡¸",
    "code": "+500",
    "currency": "GBP",
    "capital": "King Edward Point",
    "languages": ["en"],
    "nameNative": "South Georgia"
  },
  "ES": {
    "name": "Spain",
    "flag": "ğŸ‡ªğŸ‡¸",
    "code": "+34",
    "currency": "EUR",
    "capital": "Madrid",
    "languages": ["es", "eu", "ca", "gl", "oc"],
    "nameNative": "EspaÃ±a"
  },
  "LK": {
    "name": "Sri Lanka",
    "flag": "ğŸ‡±ğŸ‡°",
    "code": "+94",
    "currency": "LKR",
    "capital": "Colombo",
    "languages": ["si", "ta"],
    "nameNative": "Å›rÄ« laá¹ƒkÄva"
  },
  "SD": {
    "name": "Sudan",
    "flag": "ğŸ‡¸ğŸ‡©",
    "code": "+249",
    "currency": "SDG",
    "capital": "Khartoum",
    "languages": ["ar", "en"],
    "nameNative": "Ø§Ù„Ø³ÙˆØ¯Ø§Ù†"
  },
  "SR": {
    "name": "Suriname",
    "flag": "ğŸ‡¸ğŸ‡·",
    "code": "+597",
    "currency": "SRD",
    "capital": "Paramaribo",
    "languages": ["nl"],
    "nameNative": "Suriname"
  },
  "SJ": {
    "name": "Svalbard and Jan Mayen",
    "flag": "ğŸ‡¸ğŸ‡¯",
    "code": "+47",
    "currency": "NOK",
    "capital": "Longyearbyen",
    "languages": ["no"],
    "nameNative": "Svalbard og Jan Mayen"
  },
  "SZ": {
    "name": "Swaziland",
    "flag": "ğŸ‡¸ğŸ‡¿",
    "code": "+268",
    "currency": "SZL",
    "capital": "Lobamba",
    "languages": ["en", "ss"],
    "nameNative": "Swaziland"
  },
  "SE": {
    "name": "Sweden",
    "flag": "ğŸ‡¸ğŸ‡ª",
    "code": "+46",
    "currency": "SEK",
    "capital": "Stockholm",
    "languages": ["sv"],
    "nameNative": "Sverige"
  },
  "CH": {
    "name": "Switzerland",
    "flag": "ğŸ‡¨ğŸ‡­",
    "code": "+41",
    "currency": "CHF",
    "capital": "Bern",
    "languages": ["de", "fr", "it"],
    "nameNative": "Schweiz"
  },
  "SY": {
    "name": "Syrian Arab Republic",
    "flag": "ğŸ‡¸ğŸ‡¾",
    "code": "+963",
    "currency": "SYP",
    "capital": "Damascus",
    "languages": ["ar"],
    "nameNative": "Ø³ÙˆØ±ÙŠØ§"
  },
  "TW": {
    "name": "Taiwan",
    "flag": "ğŸ‡¹ğŸ‡¼",
    "code": "+886",
    "currency": "TWD",
    "capital": "Taipei",
    "languages": ["zh"],
    "nameNative": "è‡ºç£"
  },
  "TJ": {
    "name": "Tajikistan",
    "flag": "ğŸ‡¹ğŸ‡¯",
    "code": "+992",
    "currency": "TJS",
    "capital": "Dushanbe",
    "languages": ["tg", "ru"],
    "nameNative": "Ğ¢Ğ¾Ò·Ğ¸ĞºĞ¸ÑÑ‚Ğ¾Ğ½"
  },
  "TZ": {
    "name": "Tanzania, United Republic of Tanzania",
    "flag": "ğŸ‡¹ğŸ‡¿",
    "code": "+255",
    "currency": "TZS",
    "capital": "Dodoma",
    "languages": ["sw", "en"],
    "nameNative": "Tanzania"
  },
  "TH": {
    "name": "Thailand",
    "flag": "ğŸ‡¹ğŸ‡­",
    "code": "+66",
    "currency": "THB",
    "capital": "Bangkok",
    "languages": ["th"],
    "nameNative": "à¸›à¸£à¸°à¹€à¸—à¸¨à¹„à¸—à¸¢"
  },
  "TL": {
    "name": "Timor-Leste",
    "flag": "ğŸ‡¹ğŸ‡±",
    "code": "+670",
    "currency": "USD",
    "capital": "Dili",
    "languages": ["pt"],
    "nameNative": "Timor-Leste"
  },
  "TG": {
    "name": "Togo",
    "flag": "ğŸ‡¹ğŸ‡¬",
    "code": "+228",
    "currency": "XOF",
    "capital": "LomÃ©",
    "languages": ["fr"],
    "nameNative": "Togo"
  },
  "TK": {
    "name": "Tokelau",
    "flag": "ğŸ‡¹ğŸ‡°",
    "code": "+690",
    "currency": "NZD",
    "capital": "Fakaofo",
    "languages": ["en"],
    "nameNative": "Tokelau"
  },
  "TO": {
    "name": "Tonga",
    "flag": "ğŸ‡¹ğŸ‡´",
    "code": "+676",
    "currency": "TOP",
    "capital": "Nuku'alofa",
    "languages": ["en", "to"],
    "nameNative": "Tonga"
  },
  "TT": {
    "name": "Trinidad and Tobago",
    "flag": "ğŸ‡¹ğŸ‡¹",
    "code": "+1868",
    "currency": "TTD",
    "capital": "Port of Spain",
    "languages": ["en"],
    "nameNative": "Trinidad and Tobago"
  },
  "TN": {
    "name": "Tunisia",
    "flag": "ğŸ‡¹ğŸ‡³",
    "code": "+216",
    "currency": "TND",
    "capital": "Tunis",
    "languages": ["ar"],
    "nameNative": "ØªÙˆÙ†Ø³"
  },
  "TR": {
    "name": "Turkey",
    "flag": "ğŸ‡¹ğŸ‡·",
    "code": "+90",
    "currency": "TRY",
    "capital": "Ankara",
    "languages": ["tr"],
    "nameNative": "TÃ¼rkiye"
  },
  "TM": {
    "name": "Turkmenistan",
    "flag": "ğŸ‡¹ğŸ‡²",
    "code": "+993",
    "currency": "TMT",
    "capital": "Ashgabat",
    "languages": ["tk", "ru"],
    "nameNative": "TÃ¼rkmenistan"
  },
  "TC": {
    "name": "Turks and Caicos Islands",
    "flag": "ğŸ‡¹ğŸ‡¨",
    "code": "+1649",
    "currency": "USD",
    "capital": "Cockburn Town",
    "languages": ["en"],
    "nameNative": "Turks and Caicos Islands"
  },
  "TV": {
    "name": "Tuvalu",
    "flag": "ğŸ‡¹ğŸ‡»",
    "code": "+688",
    "currency": "AUD",
    "capital": "Funafuti",
    "languages": ["en"],
    "nameNative": "Tuvalu"
  },
  "UG": {
    "name": "Uganda",
    "flag": "ğŸ‡ºğŸ‡¬",
    "code": "+256",
    "currency": "UGX",
    "capital": "Kampala",
    "languages": ["en", "sw"],
    "nameNative": "Uganda"
  },
  "UA": {
    "name": "Ukraine",
    "flag": "ğŸ‡ºğŸ‡¦",
    "code": "+380",
    "currency": "UAH",
    "capital": "Kyiv",
    "languages": ["uk"],
    "nameNative": "Ğ£ĞºÑ€Ğ°Ñ—Ğ½Ğ°"
  },
  "AE": {
    "name": "United Arab Emirates",
    "flag": "ğŸ‡¦ğŸ‡ª",
    "code": "+971",
    "currency": "AED",
    "capital": "Abu Dhabi",
    "languages": ["ar"],
    "nameNative": "Ø¯ÙˆÙ„Ø© Ø§Ù„Ø¥Ù…Ø§Ø±Ø§Øª Ø§Ù„Ø¹Ø±Ø¨ÙŠØ© Ø§Ù„Ù…ØªØ­Ø¯Ø©"
  },
  "GB": {
    "name": "United Kingdom",
    "flag": "ğŸ‡¬ğŸ‡§",
    "code": "+44",
    "currency": "GBP",
    "capital": "London",
    "languages": ["en"],
    "nameNative": "United Kingdom"
  },
  "US": {
    "name": "United States",
    "flag": "ğŸ‡ºğŸ‡¸",
    "code": "+1",
    "currency": "USD",
    "capital": "Washington D.C.",
    "languages": ["en"],
    "nameNative": "United States"
  },
  "UY": {
    "name": "Uruguay",
    "flag": "ğŸ‡ºğŸ‡¾",
    "code": "+598",
    "currency": "UYU",
    "capital": "Montevideo",
    "languages": ["es"],
    "nameNative": "Uruguay"
  },
  "UZ": {
    "name": "Uzbekistan",
    "flag": "ğŸ‡ºğŸ‡¿",
    "code": "+998",
    "currency": "UZS",
    "capital": "Tashkent",
    "languages": ["uz", "ru"],
    "nameNative": "Oâ€˜zbekiston"
  },
  "VU": {
    "name": "Vanuatu",
    "flag": "ğŸ‡»ğŸ‡º",
    "code": "+678",
    "currency": "VUV",
    "capital": "Port Vila",
    "languages": ["bi", "en", "fr"],
    "nameNative": "Vanuatu"
  },
  "VE": {
    "name": "Venezuela, Bolivarian Republic of Venezuela",
    "flag": "ğŸ‡»ğŸ‡ª",
    "code": "+58",
    "currency": "VEF",
    "capital": "Caracas",
    "languages": ["es"],
    "nameNative": "Venezuela"
  },
  "VN": {
    "name": "Vietnam",
    "flag": "ğŸ‡»ğŸ‡³",
    "code": "+84",
    "currency": "VND",
    "capital": "Hanoi",
    "languages": ["vi"],
    "nameNative": "Viá»‡t Nam"
  },
  "VG": {
    "name": "Virgin Islands, British",
    "flag": "ğŸ‡»ğŸ‡¬",
    "code": "+1284",
    "currency": "USD",
    "capital": "Road Town",
    "languages": ["en"],
    "nameNative": "British Virgin Islands"
  },
  "VI": {
    "name": "Virgin Islands, U.S.",
    "flag": "ğŸ‡»ğŸ‡®",
    "code": "+1340",
    "currency": "USD",
    "capital": "Charlotte Amalie",
    "languages": ["en"],
    "nameNative": "United States Virgin Islands"
  },
  "WF": {
    "name": "Wallis and Futuna",
    "flag": "ğŸ‡¼ğŸ‡«",
    "code": "+681",
    "currency": "XPF",
    "capital": "Mata-Utu",
    "languages": ["fr"],
    "nameNative": "Wallis et Futuna"
  },
  "YE": {
    "name": "Yemen",
    "flag": "ğŸ‡¾ğŸ‡ª",
    "code": "+967",
    "currency": "YER",
    "capital": "Sana'a",
    "languages": ["ar"],
    "nameNative": "Ø§Ù„ÙŠÙÙ…ÙÙ†"
  },
  "ZM": {
    "name": "Zambia",
    "flag": "ğŸ‡¿ğŸ‡²",
    "code": "+260",
    "currency": "ZMK",
    "capital": "Lusaka",
    "languages": ["en"],
    "nameNative": "Zambia"
  },
  "ZW": {
    "name": "Zimbabwe",
    "flag": "ğŸ‡¿ğŸ‡¼",
    "code": "+263",
    "currency": "ZWL",
    "capital": "Harare",
    "languages": ["en", "sn", "nd"],
    "nameNative": "Zimbabwe"
  }
}
